{
    "links": {
        "self": "http://www.neowsapp.com/rest/v1/neo/3725658?api_key=iIulBulltgU6a56xZRHN4H3l9WmuAYTsLGpBGhQ2"
    },
    "id": "3725658",
    "neo_reference_id": "3725658",
    "name": "(2015 PZ56)",
    "designation": "2015 PZ56",
    "nasa_jpl_url": "http://ssd.jpl.nasa.gov/sbdb.cgi?sstr=3725658",
    "absolute_magnitude_h": 25.0,
    "estimated_diameter": {
        "kilometers": {
            "estimated_diameter_min": 0.02658,
            "estimated_diameter_max": 0.0594346868
        },
        "meters": {
            "estimated_diameter_min": 26.58,
            "estimated_diameter_max": 59.4346868419
        },
        "miles": {
            "estimated_diameter_min": 0.0165160412,
            "estimated_diameter_max": 0.0369309908
        },
        "feet": {
            "estimated_diameter_min": 87.2047272,
            "estimated_diameter_max": 194.9956979785
        }
    },
    "is_potentially_hazardous_asteroid": false,
    "close_approach_data": [
        {
            "close_approach_date": "2015-08-07",
            "close_approach_date_full": "2015-Aug-07 05:48",
            "epoch_date_close_approach": 1438926480000,
            "relative_velocity": {
                "kilometers_per_second": "6.7245710821",
                "kilometers_per_hour": "24208.4558955761",
                "miles_per_hour": "15042.1930535595"
            },
            "miss_distance": {
                "astronomical": "0.0744745632",
                "lunar": "28.9706050848",
                "kilometers": "11141236.023900384",
                "miles": "6922843.0487539392"
            },
            "orbiting_body": "Earth"
        }
    ],
    "orbital_data": {
        "orbit_id": "9",
        "orbit_determination_date": "2017-04-06 08:32:33",
        "first_observation_date": "2015-08-10",
        "last_observation_date": "2015-09-14",
        "data_arc_in_days": 35,
        "observations_used": 24,
        "orbit_uncertainty": "7",
        "minimum_orbit_intersection": ".0732792",
        "jupiter_tisserand_invariant": "3.134",
        "epoch_osculation": "2459000.5",
        "eccentricity": ".5856773812912315",
        "semi_major_axis": "2.623436295119426",
        "inclination": "2.091573090094153",
        "ascending_node_longitude": "121.6575974655939",
        "orbital_period": "1552.044649307352",
        "perihelion_distance": "1.08694899580951",
        "perihelion_argument": "191.6309887684497",
        "aphelion_distance": "4.159923594429341",
        "perihelion_time": "2458792.391120198402",
        "mean_anomaly": "48.27128959338261",
        "mean_motion": ".2319520898839225",
        "equinox": "J2000",
        "orbit_class": {
            "orbit_class_type": "AMO",
            "orbit_class_description": "Near-Earth asteroid orbits similar to that of 1221 Amor",
            "orbit_class_range": "1.017 AU < q (perihelion) < 1.3 AU"
        }
    },
    "is_sentry_object": false
}